NORAD_CAT_ID,OBJECT_NAME,OBJECT_TYPE,EPOCH,MEAN_MOTION,ECCENTRICITY,INCLINATION,RA_OF_ASC_NODE,ARG_OF_PERICENTER,MEAN_ANOMALY,BSTAR,MEAN_MOTION_DOT,MEAN_MOTION_DDOT,TLE_LINE0,TLE_LINE1,TLE_LINE2,SEMIMAJOR_AXIS,PERIOD,APOGEE,PERIGEE,DECAYED
53856.0,STARLINK-4795,PAYLOAD,2023-12-19 04:50:18,15.08840247,0.0001556,53.2157,327.1145,78.0905,282.0262,6.387e-05,7.29e-06,0.0,0 STARLINK-4795,1 53856U 22114AQ  23353.20159946  .00000729  00000-0  63870-4 0  9995,2 53856  53.2157 327.1145 0001556  78.0905 282.0262 15.08840247 70605,6917.88,95.438,540.821,538.668,0.0
53856.0,STARLINK-4795,PAYLOAD,2023-12-20 04:41:05,15.08840434,0.0001562,53.2165,322.6475,89.7944,270.3227,0.00010243,1.343e-05,0.0,0 STARLINK-4795,1 53856U 22114AQ  23354.19520214  .00001343  00000-0  10243-3 0  9992,2 53856  53.2165 322.6475 0001562  89.7944 270.3227 15.08840434 70215,6917.879,95.438,540.825,538.663,0.0
53856.0,STARLINK-4795,PAYLOAD,2023-12-21 04:31:52,15.08856521,0.0001603,53.2164,318.181,76.61,283.5071,0.00049085,7.536e-05,0.0,0 STARLINK-4795,1 53856U 22114AQ  23355.18879719  .00007536  00000-0  49085-3 0  9995,2 53856  53.2164 318.1810 0001603  76.6100 283.5071 15.08856521 70365,6917.83,95.437,540.804,538.586,0.0
53856.0,STARLINK-4795,PAYLOAD,2023-12-22 04:22:39,15.08841481,0.0001472,53.2174,313.7297,103.939,256.1766,6.5573e-05,7.56e-06,0.0,0 STARLINK-4795,1 53856U 22114AQ  23356.18240188  .00000756  00000-0  65573-4 0  9996,2 53856  53.2174 313.7297 0001472 103.9390 256.1766 15.08841481 70518,6917.876,95.437,540.759,538.723,0.0
53856.0,STARLINK-4795,PAYLOAD,2023-12-23 04:13:26,15.08846016,0.0001578,53.2175,309.2701,111.3399,248.7762,0.00027338,4.066e-05,0.0,0 STARLINK-4795,1 53856U 22114AQ  23357.17600193  .00004066  00000-0  27338-3 0  9996,2 53856  53.2175 309.2701 0001578 111.3399 248.7762 15.08846016 71207,6917.862,95.437,540.819,538.635,0.0
53856.0,STARLINK-4795,PAYLOAD,2023-12-23 20:07:18,15.08841139,0.0001696,53.2176,306.2992,123.6761,236.4393,0.00013145,1.805e-05,0.0,0 STARLINK-4795,1 53856U 22114AQ  23357.83840358  .00001805  00000-0  13145-3 0  9997,2 53856  53.2176 306.2992 0001696 123.6761 236.4393 15.08841139 70762,6917.877,95.437,540.915,538.569,0.0
53856.0,STARLINK-4795,PAYLOAD,2023-12-24 05:39:37,15.08842222,0.0001422,53.217,304.512,97.2198,262.8956,0.00019706,2.85e-05,0.0,0 STARLINK-4795,1 53856U 22114AQ  23358.23584680  .00002850  00000-0  19706-3 0  9995,2 53856  53.2170 304.5120 0001422  97.2198 262.8956 15.08842222 71366,6917.874,95.437,540.722,538.755,0.0
53856.0,STARLINK-4795,PAYLOAD,2023-12-25 02:19:37,15.08857334,0.0001869,53.2163,300.6453,67.1817,292.9372,0.00046208,7.077e-05,0.0,0 STARLINK-4795,1 53856U 22114AQ  23359.09695958  .00007077  00000-0  46208-3 0  9994,2 53856  53.2163 300.6453 0001869  67.1817 292.9372 15.08857334 70953,6917.827,95.436,540.985,538.399,0.0
53856.0,STARLINK-4795,PAYLOAD,2023-12-25 05:30:22,15.08875744,0.0001547,53.2164,300.0505,107.6744,252.4417,0.00082323,0.00012851,0.0,0 STARLINK-4795,1 53856U 22114AQ  23359.22943099  .00012851  00000-0  82323-3 0  9995,2 53856  53.2164 300.0505 0001547 107.6744 252.4417 15.08875744 70976,6917.771,95.435,540.706,538.566,0.0
53856.0,STARLINK-4795,PAYLOAD,2023-12-25 19:48:52,15.08830399,0.0001367,53.216,297.3741,81.9746,278.1401,-0.00023121,-3.965e-05,0.0,0 STARLINK-4795,1 53856U 22114AQ  23359.82560591 -.00003965  00000-0 -23121-3 0  9992,2 53856  53.2160 297.3741 0001367  81.9746 278.1401 15.08830399 71064,6917.91,95.438,540.72,538.829,0.0
53856.0,STARLINK-4795,PAYLOAD,2023-12-26 05:21:11,15.08832897,0.000157,53.2161,295.5894,84.8637,275.2534,2.8288e-05,1.62e-06,0.0,0 STARLINK-4795,1 53856U 22114AQ  23360.22304745  .00000162  00000-0  28288-4 0  9999,2 53856  53.2161 295.5894 0001570  84.8637 275.2534 15.08832897 71667,6917.902,95.438,540.853,538.681,0.0
53856.0,STARLINK-4795,PAYLOAD,2023-12-27 02:01:12,15.08849358,0.0001765,53.2162,291.7228,94.5653,265.5541,0.00091549,0.00014316,0.0,0 STARLINK-4795,1 53856U 22114AQ  23361.08417050  .00014316  00000-0  91549-3 0  9993,2 53856  53.2162 291.7228 0001765  94.5653 265.5541 15.08849358 71254,6917.852,95.437,540.938,538.496,0.0
53856.0,STARLINK-4795,PAYLOAD,2023-12-27 05:11:58,15.08857233,0.0001759,53.2161,291.127,106.0789,254.0397,0.0010561,0.00016568,0.0,0 STARLINK-4795,1 53856U 22114AQ  23361.21664763  .00016568  00000-0  10561-2 0  9998,2 53856  53.2161 291.1270 0001759 106.0789 254.0397 15.08857233 71811,6917.828,95.436,540.91,538.476,0.0
53856.0,STARLINK-4795,PAYLOAD,2023-12-27 19:30:27,15.08841344,0.0001683,53.2167,288.4521,93.4081,266.7104,0.0003455,5.215e-05,0.0,0 STARLINK-4795,1 53856U 22114AQ  23361.81281283  .00005215  00000-0  34550-3 0  9998,2 53856  53.2167 288.4521 0001683  93.4081 266.7104 15.08841344 71367,6917.876,95.437,540.906,538.577,0.0
53856.0,STARLINK-4795,PAYLOAD,2023-12-27 22:41:13,15.08846226,0.0001774,53.216,287.8561,113.9625,246.1553,0.00051051,7.847e-05,0.0,0 STARLINK-4795,1 53856U 22114AQ  23361.94529103  .00007847  00000-0  51051-3 0  9996,2 53856  53.2160 287.8561 0001774 113.9625 246.1553 15.08846226 71926,6917.861,95.437,540.954,538.499,0.0
53856.0,STARLINK-4795,PAYLOAD,2023-12-28 01:51:58,15.08888837,0.0001315,53.2177,287.2635,106.5968,253.5169,0.0022304,0.00035435,0.0,0 STARLINK-4795,1 53856U 22114AQ  23362.07776323  .00035435  00000-0  22304-2 0  9991,2 53856  53.2177 287.2635 0001315 106.5968 253.5169 15.08888837 71401,6917.731,95.434,540.506,538.686,0.0
53856.0,STARLINK-4795,PAYLOAD,2023-12-28 05:02:45,15.08848496,0.0001444,53.2173,286.6686,101.1445,258.971,0.00065444,0.00010145,0.0,0 STARLINK-4795,1 53856U 22114AQ  23362.21025091  .00010145  00000-0  65444-3 0  9990,2 53856  53.2173 286.6686 0001444 101.1445 258.9710 15.08848496 71420,6917.854,95.437,540.718,538.72,0.0
53856.0,STARLINK-4795,PAYLOAD,2023-12-28 22:32:00,15.08847511,0.0001675,53.2184,283.3924,115.4911,244.6255,0.0004494,6.873e-05,0.0,0 STARLINK-4795,1 53856U 22114AQ  23362.93889224  .00006873  00000-0  44940-3 0  9996,2 53856  53.2184 283.3924 0001675 115.4911 244.6255 15.08847511 72078,6917.857,95.437,540.881,538.564,0.0
53856.0,STARLINK-4795,PAYLOAD,2023-12-29 01:42:46,15.08843155,0.0001565,53.2173,282.7996,93.3094,266.8077,0.0006287,9.733e-05,0.0,0 STARLINK-4795,1 53856U 22114AQ  23363.07137422  .00009733  00000-0  62870-3 0  9998,2 53856  53.2173 282.7996 0001565  93.3094 266.8077 15.08843155 71552,6917.871,95.437,540.818,538.653,0.0
53856.0,STARLINK-4795,PAYLOAD,2023-12-29 04:53:32,15.08843528,0.0001588,53.2174,282.2059,93.6677,266.4497,0.00045876,7.021e-05,0.0,0 STARLINK-4795,1 53856U 22114AQ  23363.20385373  .00007021  00000-0  45876-3 0  9998,2 53856  53.2174 282.2059 0001588  93.6677 266.4497 15.08843528 72112,6917.87,95.437,540.833,538.636,0.0
53856.0,STARLINK-4795,PAYLOAD,2023-12-29 22:22:47,15.08841678,0.0001529,53.2171,278.933,107.6628,252.4531,0.00024288,3.58e-05,0.0,0 STARLINK-4795,1 53856U 22114AQ  23363.93249462  .00003580  00000-0  24288-3 0  9996,2 53856  53.2171 278.9330 0001529 107.6628 252.4531 15.08841678 72220,6917.875,95.437,540.798,538.683,0.0
53856.0,STARLINK-4795,PAYLOAD,2023-12-30 01:33:33,15.08843793,0.000147,53.217,278.3383,90.521,269.595,0.00023408,3.44e-05,0.0,0 STARLINK-4795,1 53856U 22114AQ  23364.06497407  .00003440  00000-0  23408-3 0  9993,2 53856  53.2170 278.3383 0001470  90.5210 269.5950 15.08843793 71709,6917.869,95.437,540.751,538.717,0.0
53856.0,STARLINK-4795,PAYLOAD,2023-12-30 22:13:34,15.08840339,0.0001501,53.216,274.4735,95.9347,264.1816,0.00011705,1.575e-05,0.0,0 STARLINK-4795,1 53856U 22114AQ  23364.92609599  .00001575  00000-0  11705-3 0  9999,2 53856  53.2160 274.4735 0001501  95.9347 264.1816 15.08840339 72370,6917.879,95.438,540.783,538.706,0.0
53856.0,STARLINK-4795,PAYLOAD,2023-12-30 23:48:57,15.08841238,0.0001481,53.216,274.1757,92.4151,267.701,0.00010245,1.343e-05,0.0,0 STARLINK-4795,1 53856U 22114AQ  23364.99233565  .00001343  00000-0  10245-3 0  9993,2 53856  53.2160 274.1757 0001481  92.4151 267.7010 15.08841238 71848,6917.877,95.437,540.766,538.717,0.0
53856.0,STARLINK-4795,PAYLOAD,2023-12-31 22:04:21,15.08841305,0.0001594,53.2165,270.0227,109.9908,250.1255,0.00010424,1.371e-05,0.0,0 STARLINK-4795,1 53856U 22114AQ  23365.91969629  .00001371  00000-0  10424-3 0  9993,2 53856  53.2165 270.0227 0001594 109.9908 250.1255 15.08841305 72527,6917.876,95.437,540.844,538.639,0.0
53856.0,STARLINK-4795,PAYLOAD,2024-01-01 02:50:31,15.08844114,0.000144,53.216,269.1245,88.6909,271.4248,0.00013148,1.805e-05,0.0,0 STARLINK-4795,1 53856U 22114AQ  24001.11841557  .00001805  00000-0  13148-3 0  9990,2 53856  53.2160 269.1245 0001440  88.6909 271.4248 15.08844114 72018,6917.868,95.437,540.729,538.737,0.0
53856.0,STARLINK-4795,PAYLOAD,2024-01-01 21:55:08,15.08846041,0.0001414,53.2159,265.5552,86.3166,273.7988,0.00016996,2.418e-05,0.0,0 STARLINK-4795,1 53856U 22114AQ  24001.91329408  .00002418  00000-0  16996-3 0  9999,2 53856  53.2159 265.5552 0001414  86.3166 273.7988 15.08846041 72677,6917.862,95.437,540.705,538.749,0.0
53856.0,STARLINK-4795,PAYLOAD,2024-01-02 01:05:54,15.08850644,0.0001485,53.216,264.9598,83.1779,276.9382,0.0002329,3.422e-05,0.0,0 STARLINK-4795,1 53856U 22114AQ  24002.04577179  .00003422  00000-0  23290-3 0  9995,2 53856  53.2160 264.9598 0001485  83.1779 276.9382 15.08850644 72694,6917.848,95.437,540.74,538.686,0.0
53856.0,STARLINK-4795,PAYLOAD,2024-01-02 21:45:56,15.08833381,0.0001716,53.2168,261.0923,69.3067,290.8109,0.00047783,7.323e-05,0.0,0 STARLINK-4795,1 53856U 22114AQ  24002.90689882  .00007323  00000-0  47783-3 0  9992,2 53856  53.2168 261.0923 0001716  69.3067 290.8109 15.08833381 72821,6917.901,95.438,540.953,538.579,0.0
53856.0,STARLINK-4795,PAYLOAD,2024-01-03 02:32:05,15.0882604,0.0001854,53.2166,260.2008,72.6194,287.5001,0.0007456,0.00011594,0.0,0 STARLINK-4795,1 53856U 22114AQ  24003.10562327  .00011594  00000-0  74560-3 0  9997,2 53856  53.2166 260.2008 0001854  72.6194 287.5001 15.08826040 72317,6917.923,95.438,541.071,538.505,0.0
